{
  "type": "FeatureCollection",
  "features": [
    {
      "type": "Feature",
      "properties": {
        "norad_id": 38091,
        "name": "BEIDOU-2 G5 (C05)",
        "group": "gnss",
        "lat": 0.7152686070766306,
        "lon": 83.68281351180691,
        "alt_km": 35829.723399293,
        "timestamp": "2025-12-03T20:47:58.464635+00:00",
        "meta_object_name": "BEIDOU-2 G5 (C05)",
        "meta_object_id": "2012-008A",
        "meta_epoch": "2025-12-03T12:13:51.619008",
        "meta_mean_motion": 1.00272325,
        "meta_eccentricity": 0.0012325,
        "meta_inclination": 3.0845,
        "meta_ra_of_asc_node": 70.7341,
        "meta_arg_of_pericenter": 225.5074,
        "meta_mean_anomaly": 18.5234,
        "meta_ephemeris_type": 0,
        "meta_classification_type": "U",
        "meta_norad_cat_id": 38091,
        "meta_element_set_no": 999,
        "meta_rev_at_epoch": 5040,
        "meta_bstar": 0,
        "meta_mean_motion_dot": 7.4e-07,
        "meta_mean_motion_ddot": 0,
        "tle_line1": "1 38091U 12008A   25337.50962522  .00000074  00000+0  00000+0 0  9992",
        "tle_line2": "2 38091   3.0845  70.7341 0012325 225.5074  18.5234  1.00272325 50407"
      },
      "geometry": {
        "type": "Point",
        "coordinates": [
          83.68281351180691,
          0.7152686070766306
        ]
      }
    },
    {
      "type": "Feature",
      "properties": {
        "norad_id": 38250,
        "name": "BEIDOU-2 M3 (C11)",
        "group": "gnss",
        "lat": 55.83409036400285,
        "lon": 36.887034860573046,
        "alt_km": 21589.983787352816,
        "timestamp": "2025-12-03T20:47:58.464647+00:00",
        "meta_object_name": "BEIDOU-2 M3 (C11)",
        "meta_object_id": "2012-018A",
        "meta_epoch": "2025-12-01T01:13:35.126400",
        "meta_mean_motion": 1.86229725,
        "meta_eccentricity": 0.00245382,
        "meta_inclination": 55.9302,
        "meta_ra_of_asc_node": 311.5507,
        "meta_arg_of_pericenter": 273.3676,
        "meta_mean_anomaly": 86.348,
        "meta_ephemeris_type": 0,
        "meta_classification_type": "U",
        "meta_norad_cat_id": 38250,
        "meta_element_set_no": 999,
        "meta_rev_at_epoch": 9225,
        "meta_bstar": 0,
        "meta_mean_motion_dot": -5.3e-07,
        "meta_mean_motion_ddot": 0,
        "tle_line1": "1 38250U 12018A   25335.05110100 -.00000053  00000+0  00000+0 0  9993",
        "tle_line2": "2 38250  55.9302 311.5507 0024538 273.3676  86.3480  1.86229725 92251"
      },
      "geometry": {
        "type": "Point",
        "coordinates": [
          36.887034860573046,
          55.83409036400285
        ]
      }
    },
    {
      "type": "Feature",
      "properties": {
        "norad_id": 38251,
        "name": "BEIDOU-2 M4 (C12)",
        "group": "gnss",
        "lat": 37.2364038335014,
        "lon": 99.59283025575405,
        "alt_km": 21558.899520357692,
        "timestamp": "2025-12-03T20:47:58.464658+00:00",
        "meta_object_name": "BEIDOU-2 M4 (C12)",
        "meta_object_id": "2012-018B",
        "meta_epoch": "2025-11-30T23:35:43.237248",
        "meta_mean_motion": 1.86229405,
        "meta_eccentricity": 0.00156645,
        "meta_inclination": 55.8317,
        "meta_ra_of_asc_node": 310.7829,
        "meta_arg_of_pericenter": 276.4205,
        "meta_mean_anomaly": 83.3972,
        "meta_ephemeris_type": 0,
        "meta_classification_type": "U",
        "meta_norad_cat_id": 38251,
        "meta_element_set_no": 999,
        "meta_rev_at_epoch": 9225,
        "meta_bstar": 0,
        "meta_mean_motion_dot": -5.3e-07,
        "meta_mean_motion_ddot": 0,
        "tle_line1": "1 38251U 12018B   25334.98313932 -.00000053  00000+0  00000+0 0  9993",
        "tle_line2": "2 38251  55.8317 310.7829 0015664 276.4205  83.3972  1.86229405 92255"
      },
      "geometry": {
        "type": "Point",
        "coordinates": [
          99.59283025575405,
          37.2364038335014
        ]
      }
    },
    {
      "type": "Feature",
      "properties": {
        "norad_id": 38652,
        "name": "SES-5 (EGNOS/PRN 136)",
        "group": "gnss",
        "lat": 0.08278915876182087,
        "lon": 29.921287849966163,
        "alt_km": 35793.262697650905,
        "timestamp": "2025-12-03T20:47:58.464670+00:00",
        "meta_object_name": "SES-5 (EGNOS/PRN 136)",
        "meta_object_id": "2012-036A",
        "meta_epoch": "2025-12-03T06:55:48.578880",
        "meta_mean_motion": 1.0027114,
        "meta_eccentricity": 0.0002144,
        "meta_inclination": 0.0592,
        "meta_ra_of_asc_node": 303.2756,
        "meta_arg_of_pericenter": 305.781,
        "meta_mean_anomaly": 292.2636,
        "meta_ephemeris_type": 0,
        "meta_classification_type": "U",
        "meta_norad_cat_id": 38652,
        "meta_element_set_no": 999,
        "meta_rev_at_epoch": 4250,
        "meta_bstar": 0,
        "meta_mean_motion_dot": 5.3e-07,
        "meta_mean_motion_ddot": 0,
        "tle_line1": "1 38652U 12036A   25337.28875670  .00000053  00000+0  00000+0 0  9995",
        "tle_line2": "2 38652   0.0592 303.2756 0002144 305.7810 292.2636  1.00271140 42500"
      },
      "geometry": {
        "type": "Point",
        "coordinates": [
          29.921287849966163,
          0.08278915876182087
        ]
      }
    },
    {
      "type": "Feature",
      "properties": {
        "norad_id": 38775,
        "name": "BEIDOU-2 M6 (C14)",
        "group": "gnss",
        "lat": -27.008743176957445,
        "lon": 49.564638891914115,
        "alt_km": 21502.9210410358,
        "timestamp": "2025-12-03T20:47:58.464682+00:00",
        "meta_object_name": "BEIDOU-2 M6 (C14)",
        "meta_object_id": "2012-050B",
        "meta_epoch": "2025-12-02T20:12:21.765312",
        "meta_mean_motion": 1.86230699,
        "meta_eccentricity": 0.0010891,
        "meta_inclination": 56.3701,
        "meta_ra_of_asc_node": 69.396,
        "meta_arg_of_pericenter": 346.3051,
        "meta_mean_anomaly": 13.6678,
        "meta_ephemeris_type": 0,
        "meta_classification_type": "U",
        "meta_norad_cat_id": 38775,
        "meta_element_set_no": 999,
        "meta_rev_at_epoch": 8965,
        "meta_bstar": 0,
        "meta_mean_motion_dot": -4.8e-07,
        "meta_mean_motion_ddot": 0,
        "tle_line1": "1 38775U 12050B   25336.84191858 -.00000048  00000+0  00000+0 0  9992",
        "tle_line2": "2 38775  56.3701  69.3960 0010891 346.3051  13.6678  1.86230699 89651"
      },
      "geometry": {
        "type": "Point",
        "coordinates": [
          49.564638891914115,
          -27.008743176957445
        ]
      }
    },
    {
      "type": "Feature",
      "properties": {
        "norad_id": 38779,
        "name": "GSAT-10 (GAGAN/PRN 128)",
        "group": "gnss",
        "lat": -0.0043019945361453295,
        "lon": 107.8670109610467,
        "alt_km": 35777.82383319447,
        "timestamp": "2025-12-03T20:47:58.464693+00:00",
        "meta_object_name": "GSAT-10 (GAGAN/PRN 128)",
        "meta_object_id": "2012-051B",
        "meta_epoch": "2025-12-03T10:43:30.635904",
        "meta_mean_motion": 1.00269107,
        "meta_eccentricity": 0.0002475,
        "meta_inclination": 0.0321,
        "meta_ra_of_asc_node": 262.6151,
        "meta_arg_of_pericenter": 235.1032,
        "meta_mean_anomaly": 178.6611,
        "meta_ephemeris_type": 0,
        "meta_classification_type": "U",
        "meta_norad_cat_id": 38779,
        "meta_element_set_no": 999,
        "meta_rev_at_epoch": 4813,
        "meta_bstar": 0,
        "meta_mean_motion_dot": -1.46e-06,
        "meta_mean_motion_ddot": 0,
        "tle_line1": "1 38779U 12051B   25337.44688236 -.00000146  00000+0  00000+0 0  9994",
        "tle_line2": "2 38779   0.0321 262.6151 0002475 235.1032 178.6611  1.00269107 48131"
      },
      "geometry": {
        "type": "Point",
        "coordinates": [
          107.8670109610467,
          -0.0043019945361453295
        ]
      }
    },
    {
      "type": "Feature",
      "properties": {
        "norad_id": 38833,
        "name": "GPS BIIF-3  (PRN 24)",
        "group": "gnss",
        "lat": -6.022854496561392,
        "lon": 147.11955258646924,
        "alt_km": 20027.17081689693,
        "timestamp": "2025-12-03T20:47:58.464705+00:00",
        "meta_object_name": "GPS BIIF-3  (PRN 24)",
        "meta_object_id": "2012-053A",
        "meta_epoch": "2025-12-01T21:10:58.228896",
        "meta_mean_motion": 2.00564835,
        "meta_eccentricity": 0.01754817,
        "meta_inclination": 53.5559,
        "meta_ra_of_asc_node": 151.6834,
        "meta_arg_of_pericenter": 63.8436,
        "meta_mean_anomaly": 297.9871,
        "meta_ephemeris_type": 0,
        "meta_classification_type": "U",
        "meta_norad_cat_id": 38833,
        "meta_element_set_no": 999,
        "meta_rev_at_epoch": 9548,
        "meta_bstar": 0,
        "meta_mean_motion_dot": 1.16e-06,
        "meta_mean_motion_ddot": 0,
        "tle_line1": "1 38833U 12053A   25335.88261839  .00000116  00000+0  00000+0 0  9995",
        "tle_line2": "2 38833  53.5559 151.6834 0175481  63.8436 297.9871  2.00564835 95485"
      },
      "geometry": {
        "type": "Point",
        "coordinates": [
          147.11955258646924,
          -6.022854496561392
        ]
      }
    }
  ]
}